[{"OBJECT_NAME":"STARLINK-32195","OBJECT_ID":"2024-144R","EPOCH":"2026-03-09T16:54:10.319040","MEAN_MOTION":15.30191375,"ECCENTRICITY":9.247e-5,"INCLINATION":53.159,"RA_OF_ASC_NODE":216.9022,"ARG_OF_PERICENTER":99.213,"MEAN_ANOMALY":260.8975,"EPHEMERIS_TYPE":0,"CLASSIFICATION_TYPE":"U","NORAD_CAT_ID":60440,"ELEMENT_SET_NO":999,"REV_AT_EPOCH":8931,"BSTAR":-7.527978e-6,"MEAN_MOTION_DOT":-5.82e-6,"MEAN_MOTION_DDOT":0},{"OBJECT_NAME":"OBJECT BE","OBJECT_ID":"2025-313BE","EPOCH":"2026-03-09T16:43:59.380320","MEAN_MOTION":15.29801687,"ECCENTRICITY":0.00072083,"INCLINATION":97.3989,"RA_OF_ASC_NODE":145.3568,"ARG_OF_PERICENTER":335.3714,"MEAN_ANOMALY":24.7181,"EPHEMERIS_TYPE":0,"CLASSIFICATION_TYPE":"U","NORAD_CAT_ID":67482,"ELEMENT_SET_NO":999,"REV_AT_EPOCH":797,"BSTAR":0.0026504328,"MEAN_MOTION_DOT":0.00077178,"MEAN_MOTION_DDOT":0}]
